start=new Date('2023-06-11T00:00:00.000Z').valueOf();
sats=[{"ELEMENT_SET_NO":"999","SEMIMAJOR_AXIS":"6917.899","MEAN_MOTION_DOT":"0.00000745","COUNTRY_CODE":"US","APOAPSIS":"540.350","RA_OF_ASC_NODE":"282.1349","TLE_LINE1":"1 52294U 22041AK  23161.60632585  .00000745  00000-0  64881-4 0  9996","MEAN_MOTION_DDOT":"0.0000000000000","BSTAR":"0.00006488100000","RCS_SIZE":"MEDIUM","MEAN_MOTION":"15.08833882","PERIAPSIS":"539.178","OBJECT_NAME":"STARLINK-3777","OBJECT_ID":"2022-041AK","CLASSIFICATION_TYPE":"U","EPOCH":"2023-06-10T14:33:06.553440","TLE_LINE2":"2 52294  53.2162 282.1349 0000847 102.3860 257.7227 15.08833882 63075","INCLINATION":"53.2162","REV_AT_EPOCH":"6307","TIME_SYSTEM":"UTC","DECAY_DATE":null,"GP_ID":"233621632","CENTER_NAME":"EARTH","REF_FRAME":"TEME","NORAD_CAT_ID":"52294","ECCENTRICITY":"0.00008470","PERIOD":"95.438","SITE":"AFETR","FILE":"3929709","OBJECT_TYPE":"PAYLOAD","MEAN_ELEMENT_THEORY":"SGP4","LAUNCH_DATE":"2022-04-21","EPHEMERIS_TYPE":"0","MEAN_ANOMALY":"257.7227","ARG_OF_PERICENTER":"102.3860"},{"EPHEMERIS_TYPE":"0","MEAN_ANOMALY":"271.0866","ARG_OF_PERICENTER":"89.0243","ECCENTRICITY":"0.00010120","PERIOD":"95.437","SITE":"AFETR","FILE":"3929969","OBJECT_TYPE":"PAYLOAD","MEAN_ELEMENT_THEORY":"SGP4","LAUNCH_DATE":"2022-04-21","REF_FRAME":"TEME","NORAD_CAT_ID":"52295","REV_AT_EPOCH":"6310","TIME_SYSTEM":"UTC","DECAY_DATE":null,"CENTER_NAME":"EARTH","GP_ID":"233655202","OBJECT_ID":"2022-041AL","CLASSIFICATION_TYPE":"U","EPOCH":"2023-06-10T19:35:08.960352","INCLINATION":"53.2166","TLE_LINE2":"2 52295  53.2166 281.1960 0001012  89.0243 271.0866 15.08850469 63101","MEAN_MOTION_DDOT":"0.0000000000000","BSTAR":"0.00014757000000","RCS_SIZE":"LARGE","PERIAPSIS":"539.013","MEAN_MOTION":"15.08850469","OBJECT_NAME":"STARLINK-3765","RA_OF_ASC_NODE":"281.1960","TLE_LINE1":"1 52295U 22041AL  23161.81607593  .00002062  00000-0  14757-3 0  9991","ELEMENT_SET_NO":"999","SEMIMAJOR_AXIS":"6917.848","MEAN_MOTION_DOT":"0.00002062","COUNTRY_CODE":"US","APOAPSIS":"540.413"},{"MEAN_MOTION_DDOT":"0.0000000000000","BSTAR":"0.00010552000000","RCS_SIZE":"LARGE","OBJECT_NAME":"STARLINK-3766","MEAN_MOTION":"15.08841643","PERIAPSIS":"538.947","OBJECT_ID":"2022-041AM","CLASSIFICATION_TYPE":"U","INCLINATION":"53.2158","TLE_LINE2":"2 52296  53.2158 282.1848 0001147  86.2140 273.8984 15.08841643 64299","EPOCH":"2023-06-10T14:17:12.449472","ELEMENT_SET_NO":"999","SEMIMAJOR_AXIS":"6917.875","MEAN_MOTION_DOT":"0.00001392","COUNTRY_CODE":"US","APOAPSIS":"540.534","TLE_LINE1":"1 52296U 22041AM  23161.59528298  .00001392  00000-0  10552-3 0  9995","RA_OF_ASC_NODE":"282.1848","PERIOD":"95.437","ECCENTRICITY":"0.00011470","FILE":"3929849","SITE":"AFETR","LAUNCH_DATE":"2022-04-21","MEAN_ELEMENT_THEORY":"SGP4","OBJECT_TYPE":"PAYLOAD","EPHEMERIS_TYPE":"0","MEAN_ANOMALY":"273.8984","ARG_OF_PERICENTER":"86.2140","TIME_SYSTEM":"UTC","REV_AT_EPOCH":"6429","DECAY_DATE":null,"GP_ID":"233628588","CENTER_NAME":"EARTH","NORAD_CAT_ID":"52296","REF_FRAME":"TEME"},{"APOAPSIS":"540.537","MEAN_MOTION_DOT":"0.00008538","COUNTRY_CODE":"US","SEMIMAJOR_AXIS":"6917.842","ELEMENT_SET_NO":"999","RA_OF_ASC_NODE":"281.2121","TLE_LINE1":"1 52297U 22041AN  23161.81240122  .00008538  00000-0  55367-3 0  9990","MEAN_MOTION":"15.08852485","PERIAPSIS":"538.878","OBJECT_NAME":"STARLINK-3758","RCS_SIZE":"LARGE","BSTAR":"0.00055367000000","MEAN_MOTION_DDOT":"0.0000000000000","EPOCH":"2023-06-10T19:29:51.465408","TLE_LINE2":"2 52297  53.2158 281.2121 0001199  90.3505 269.7624 15.08852485 63102","INCLINATION":"53.2158","CLASSIFICATION_TYPE":"U","OBJECT_ID":"2022-041AN","GP_ID":"233654201","CENTER_NAME":"EARTH","DECAY_DATE":null,"REV_AT_EPOCH":"6310","TIME_SYSTEM":"UTC","REF_FRAME":"TEME","NORAD_CAT_ID":"52297","OBJECT_TYPE":"PAYLOAD","LAUNCH_DATE":"2022-04-21","MEAN_ELEMENT_THEORY":"SGP4","SITE":"AFETR","FILE":"3929969","ECCENTRICITY":"0.00011990","PERIOD":"95.437","ARG_OF_PERICENTER":"90.3505","MEAN_ANOMALY":"269.7624","EPHEMERIS_TYPE":"0"},{"APOAPSIS":"540.537","COUNTRY_CODE":"US","MEAN_MOTION_DOT":"0.00001061","SEMIMAJOR_AXIS":"6917.871","ELEMENT_SET_NO":"999","RA_OF_ASC_NODE":"281.6129","TLE_LINE1":"1 52298U 22041AP  23161.72504240  .00001061  00000-0  84755-4 0  9993","PERIAPSIS":"538.935","MEAN_MOTION":"15.08843064","OBJECT_NAME":"STARLINK-3760","RCS_SIZE":"LARGE","BSTAR":"0.00008475500000","MEAN_MOTION_DDOT":"0.0000000000000","EPOCH":"2023-06-10T17:24:03.663360","TLE_LINE2":"2 52298  53.2171 281.6129 0001158  70.5419 289.5699 15.08843064 63092","INCLINATION":"53.2171","CLASSIFICATION_TYPE":"U","OBJECT_ID":"2022-041AP","GP_ID":"233654451","CENTER_NAME":"EARTH","DECAY_DATE":null,"REV_AT_EPOCH":"6309","TIME_SYSTEM":"UTC","REF_FRAME":"TEME","NORAD_CAT_ID":"52298","OBJECT_TYPE":"PAYLOAD","MEAN_ELEMENT_THEORY":"SGP4","LAUNCH_DATE":"2022-04-21","SITE":"AFETR","FILE":"3929969","ECCENTRICITY":"0.00011580","PERIOD":"95.437","ARG_OF_PERICENTER":"70.5419","MEAN_ANOMALY":"289.5699","EPHEMERIS_TYPE":"0"},{"NORAD_CAT_ID":"52299","REF_FRAME":"TEME","DECAY_DATE":null,"CENTER_NAME":"EARTH","GP_ID":"233622378","TIME_SYSTEM":"UTC","REV_AT_EPOCH":"6307","MEAN_ANOMALY":"263.4785","ARG_OF_PERICENTER":"96.6306","EPHEMERIS_TYPE":"0","FILE":"3929709","SITE":"AFETR","MEAN_ELEMENT_THEORY":"SGP4","LAUNCH_DATE":"2022-04-21","OBJECT_TYPE":"PAYLOAD","PERIOD":"95.437","ECCENTRICITY":"0.00008710","TLE_LINE1":"1 52299U 22041AQ  23161.59896056  .00001531  00000-0  11421-3 0  9999","RA_OF_ASC_NODE":"282.1681","COUNTRY_CODE":"US","MEAN_MOTION_DOT":"0.00001531","APOAPSIS":"540.341","ELEMENT_SET_NO":"999","SEMIMAJOR_AXIS":"6917.873","CLASSIFICATION_TYPE":"U","INCLINATION":"53.2167","TLE_LINE2":"2 52299  53.2167 282.1681 0000871  96.6306 263.4785 15.08842280 63076","EPOCH":"2023-06-10T14:22:30.192384","OBJECT_ID":"2022-041AQ","RCS_SIZE":"LARGE","OBJECT_NAME":"STARLINK-3759","PERIAPSIS":"539.136","MEAN_MOTION":"15.08842280","MEAN_MOTION_DDOT":"0.0000000000000","BSTAR":"0.00011421000000"},{"RCS_SIZE":"LARGE","MEAN_MOTION":"15.08842382","PERIAPSIS":"539.065","OBJECT_NAME":"STARLINK-3769","MEAN_MOTION_DDOT":"0.0000000000000","BSTAR":"0.00006392700000","CLASSIFICATION_TYPE":"U","EPOCH":"2023-06-10T15:36:41.643936","TLE_LINE2":"2 52300  53.2177 281.9380 0000973  80.5961 279.5142 15.08842382 64300","INCLINATION":"53.2177","OBJECT_ID":"2022-041AR","COUNTRY_CODE":"US","MEAN_MOTION_DOT":"0.00000730","APOAPSIS":"540.411","ELEMENT_SET_NO":"999","SEMIMAJOR_AXIS":"6917.873","RA_OF_ASC_NODE":"281.9380","TLE_LINE1":"1 52300U 22041AR  23161.65048199  .00000730  00000-0  63927-4 0  9995","SITE":"AFETR","FILE":"3929969","OBJECT_TYPE":"PAYLOAD","LAUNCH_DATE":"2022-04-21","MEAN_ELEMENT_THEORY":"SGP4","ECCENTRICITY":"0.00009730","PERIOD":"95.437","MEAN_ANOMALY":"279.5142","ARG_OF_PERICENTER":"80.5961","EPHEMERIS_TYPE":"0","DECAY_DATE":null,"GP_ID":"233655448","CENTER_NAME":"EARTH","REV_AT_EPOCH":"6430","TIME_SYSTEM":"UTC","REF_FRAME":"TEME","NORAD_CAT_ID":"52300"},{"ELEMENT_SET_NO":"999","SEMIMAJOR_AXIS":"6917.884","COUNTRY_CODE":"US","MEAN_MOTION_DOT":"0.00001498","APOAPSIS":"540.507","TLE_LINE1":"1 52301U 22041AS  23161.73512734  .00001498  00000-0  11220-3 0  9996","RA_OF_ASC_NODE":"281.5582","MEAN_MOTION_DDOT":"0.0000000000000","BSTAR":"0.00011220000000","RCS_SIZE":"LARGE","OBJECT_NAME":"STARLINK-3768","PERIAPSIS":"538.990","MEAN_MOTION":"15.08838976","OBJECT_ID":"2022-041AS","CLASSIFICATION_TYPE":"U","TLE_LINE2":"2 52301  53.2162 281.5582 0001096  92.1976 267.9141 15.08838976 63096","INCLINATION":"53.2162","EPOCH":"2023-06-10T17:38:35.002176","TIME_SYSTEM":"UTC","REV_AT_EPOCH":"6309","DECAY_DATE":null,"CENTER_NAME":"EARTH","GP_ID":"233653702","NORAD_CAT_ID":"52301","REF_FRAME":"TEME","PERIOD":"95.438","ECCENTRICITY":"0.00010960","FILE":"3929969","SITE":"AFETR","MEAN_ELEMENT_THEORY":"SGP4","LAUNCH_DATE":"2022-04-21","OBJECT_TYPE":"PAYLOAD","EPHEMERIS_TYPE":"0","MEAN_ANOMALY":"267.9141","ARG_OF_PERICENTER":"92.1976"},{"EPHEMERIS_TYPE":"0","ARG_OF_PERICENTER":"62.5175","MEAN_ANOMALY":"297.5914","PERIOD":"95.437","ECCENTRICITY":"0.00009480","LAUNCH_DATE":"2022-04-21","MEAN_ELEMENT_THEORY":"SGP4","OBJECT_TYPE":"PAYLOAD","FILE":"3929709","SITE":"AFETR","NORAD_CAT_ID":"52302","REF_FRAME":"TEME","TIME_SYSTEM":"UTC","REV_AT_EPOCH":"6320","GP_ID":"233621633","CENTER_NAME":"EARTH","DECAY_DATE":null,"OBJECT_ID":"2022-041AT","INCLINATION":"53.2167","TLE_LINE2":"2 52302  53.2167 272.2844 0000948  62.5175 297.5914 15.08842890 63207","EPOCH":"2023-06-10T13:46:43.888512","CLASSIFICATION_TYPE":"U","BSTAR":"0.00010964000000","MEAN_MOTION_DDOT":"0.0000000000000","OBJECT_NAME":"STARLINK-3564","PERIAPSIS":"539.081","MEAN_MOTION":"15.08842890","RCS_SIZE":"LARGE","TLE_LINE1":"1 52302U 22041AT  23161.57411908  .00001458  00000-0  10964-3 0  9990","RA_OF_ASC_NODE":"272.2844","SEMIMAJOR_AXIS":"6917.872","ELEMENT_SET_NO":"999","APOAPSIS":"540.392","MEAN_MOTION_DOT":"0.00001458","COUNTRY_CODE":"US"},{"ECCENTRICITY":"0.00009260","PERIOD":"95.437","OBJECT_TYPE":"PAYLOAD","LAUNCH_DATE":"2022-04-21","MEAN_ELEMENT_THEORY":"SGP4","SITE":"AFETR","FILE":"3929969","EPHEMERIS_TYPE":"0","ARG_OF_PERICENTER":"91.7970","MEAN_ANOMALY":"268.3128","REV_AT_EPOCH":"6429","TIME_SYSTEM":"UTC","GP_ID":"233655203","CENTER_NAME":"EARTH","DECAY_DATE":null,"REF_FRAME":"TEME","NORAD_CAT_ID":"52303","BSTAR":"0.00001915300000","MEAN_MOTION_DDOT":"0.0000000000000","MEAN_MOTION":"15.08843373","PERIAPSIS":"539.094","OBJECT_NAME":"STARLINK-3742","RCS_SIZE":"LARGE","OBJECT_ID":"2022-041AU","EPOCH":"2023-06-10T14:06:36.467712","TLE_LINE2":"2 52303  53.2157 282.2181 0000926  91.7970 268.3128 15.08843373 64295","INCLINATION":"53.2157","CLASSIFICATION_TYPE":"U","SEMIMAJOR_AXIS":"6917.870","ELEMENT_SET_NO":"999","APOAPSIS":"540.376","COUNTRY_CODE":"US","MEAN_MOTION_DOT":"0.00000017","RA_OF_ASC_NODE":"282.2181","TLE_LINE1":"1 52303U 22041AU  23161.58792208  .00000017  00000-0  19153-4 0  9997"}];
